{
  "type": "FeatureCollection",
  "features": [
    {
      "type": "Feature",
      "properties": {
        "norad_id": 41589,
        "name": "EUTELSAT 117 WEST B (WAAS/PRN 131)",
        "group": "gnss",
        "lat": 0.01145455285849147,
        "lon": -66.28055598533838,
        "alt_km": 35785.32219381638,
        "timestamp": "2025-12-18T21:31:51.242953+00:00",
        "meta_object_name": "EUTELSAT 117 WEST B (WAAS/PRN 131)",
        "meta_object_id": "2016-038B",
        "meta_epoch": "2025-12-17T21:19:49.567296",
        "meta_mean_motion": 1.00271876,
        "meta_eccentricity": 3.601e-05,
        "meta_inclination": 0.0113,
        "meta_ra_of_asc_node": 157.4202,
        "meta_arg_of_pericenter": 73.0441,
        "meta_mean_anomaly": 59.2611,
        "meta_ephemeris_type": 0,
        "meta_classification_type": "U",
        "meta_norad_cat_id": 41589,
        "meta_element_set_no": 999,
        "meta_rev_at_epoch": 3484,
        "meta_bstar": 0,
        "meta_mean_motion_dot": 1.3e-07,
        "meta_mean_motion_ddot": 0,
        "tle_line1": "1 41589U 16038B   25351.88876814  .00000013  00000+0  00000+0 0  9993",
        "tle_line2": "2 41589   0.0113 157.4202 0000360  73.0441  59.2611  1.00271876 34848"
      },
      "geometry": {
        "type": "Point",
        "coordinates": [
          -66.28055598533838,
          0.01145455285849147
        ]
      }
    },
    {
      "type": "Feature",
      "properties": {
        "norad_id": 41859,
        "name": "GSAT0207 (GALILEO 15)",
        "group": "gnss",
        "lat": 29.74767133043922,
        "lon": -97.14800496752297,
        "alt_km": 23225.15058222511,
        "timestamp": "2025-12-18T21:31:51.242966+00:00",
        "meta_object_name": "GSAT0207 (GALILEO 15)",
        "meta_object_id": "2016-069A",
        "meta_epoch": "2025-12-13T09:14:27.730752",
        "meta_mean_motion": 1.70474447,
        "meta_eccentricity": 0.00022423,
        "meta_inclination": 55.3826,
        "meta_ra_of_asc_node": 106.2323,
        "meta_arg_of_pericenter": 321.9482,
        "meta_mean_anomaly": 38.0041,
        "meta_ephemeris_type": 0,
        "meta_classification_type": "U",
        "meta_norad_cat_id": 41859,
        "meta_element_set_no": 999,
        "meta_rev_at_epoch": 5623,
        "meta_bstar": 0,
        "meta_mean_motion_dot": 0,
        "meta_mean_motion_ddot": 0,
        "tle_line1": "1 41859U 16069A   25347.38504318  .00000000  00000+0  00000+0 0  9990",
        "tle_line2": "2 41859  55.3826 106.2323 0002242 321.9482  38.0041  1.70474447 56234"
      },
      "geometry": {
        "type": "Point",
        "coordinates": [
          -97.14800496752297,
          29.74767133043922
        ]
      }
    },
    {
      "type": "Feature",
      "properties": {
        "norad_id": 41860,
        "name": "GSAT0212 (GALILEO 16)",
        "group": "gnss",
        "lat": -40.94051219716593,
        "lon": -37.176074299046256,
        "alt_km": 23232.28023204781,
        "timestamp": "2025-12-18T21:31:51.242977+00:00",
        "meta_object_name": "GSAT0212 (GALILEO 16)",
        "meta_object_id": "2016-069B",
        "meta_epoch": "2025-12-17T08:16:27.265728",
        "meta_mean_motion": 1.70474701,
        "meta_eccentricity": 0.00020752,
        "meta_inclination": 55.3825,
        "meta_ra_of_asc_node": 106.1181,
        "meta_arg_of_pericenter": 22.8873,
        "meta_mean_anomaly": 337.0809,
        "meta_ephemeris_type": 0,
        "meta_classification_type": "U",
        "meta_norad_cat_id": 41860,
        "meta_element_set_no": 999,
        "meta_rev_at_epoch": 5655,
        "meta_bstar": 0,
        "meta_mean_motion_dot": -9e-08,
        "meta_mean_motion_ddot": 0,
        "tle_line1": "1 41860U 16069B   25351.34476002 -.00000009  00000+0  00000+0 0  9991",
        "tle_line2": "2 41860  55.3825 106.1181 0002075  22.8873 337.0809  1.70474701 56553"
      },
      "geometry": {
        "type": "Point",
        "coordinates": [
          -37.176074299046256,
          -40.94051219716593
        ]
      }
    },
    {
      "type": "Feature",
      "properties": {
        "norad_id": 41861,
        "name": "GSAT0213 (GALILEO 17)",
        "group": "gnss",
        "lat": 5.878280348327208,
        "lon": 110.14569252164313,
        "alt_km": 23220.8867326229,
        "timestamp": "2025-12-18T21:31:51.242992+00:00",
        "meta_object_name": "GSAT0213 (GALILEO 17)",
        "meta_object_id": "2016-069C",
        "meta_epoch": "2025-12-17T17:05:43.808640",
        "meta_mean_motion": 1.70474957,
        "meta_eccentricity": 0.00025722,
        "meta_inclination": 55.385,
        "meta_ra_of_asc_node": 106.1156,
        "meta_arg_of_pericenter": 282.262,
        "meta_mean_anomaly": 77.6683,
        "meta_ephemeris_type": 0,
        "meta_classification_type": "U",
        "meta_norad_cat_id": 41861,
        "meta_element_set_no": 999,
        "meta_rev_at_epoch": 5642,
        "meta_bstar": 0,
        "meta_mean_motion_dot": -9e-08,
        "meta_mean_motion_ddot": 0,
        "tle_line1": "1 41861U 16069C   25351.71231260 -.00000009  00000+0  00000+0 0  9998",
        "tle_line2": "2 41861  55.3850 106.1156 0002572 282.2620  77.6683  1.70474957 56424"
      },
      "geometry": {
        "type": "Point",
        "coordinates": [
          110.14569252164313,
          5.878280348327208
        ]
      }
    },
    {
      "type": "Feature",
      "properties": {
        "norad_id": 41862,
        "name": "GSAT0214 (GALILEO 18)",
        "group": "gnss",
        "lat": -54.68780003378572,
        "lon": 29.186085328521642,
        "alt_km": 23223.869104925914,
        "timestamp": "2025-12-18T21:31:51.243003+00:00",
        "meta_object_name": "GSAT0214 (GALILEO 18)",
        "meta_object_id": "2016-069D",
        "meta_epoch": "2025-12-14T22:12:36.299232",
        "meta_mean_motion": 1.70474813,
        "meta_eccentricity": 0.00014239,
        "meta_inclination": 55.3815,
        "meta_ra_of_asc_node": 106.1855,
        "meta_arg_of_pericenter": 290.4821,
        "meta_mean_anomaly": 69.4663,
        "meta_ephemeris_type": 0,
        "meta_classification_type": "U",
        "meta_norad_cat_id": 41862,
        "meta_element_set_no": 999,
        "meta_rev_at_epoch": 5650,
        "meta_bstar": 0,
        "meta_mean_motion_dot": -6e-08,
        "meta_mean_motion_ddot": 0,
        "tle_line1": "1 41862U 16069D   25348.92542013 -.00000006  00000+0  00000+0 0  9996",
        "tle_line2": "2 41862  55.3815 106.1855 0001423 290.4821  69.4663  1.70474813 56507"
      },
      "geometry": {
        "type": "Point",
        "coordinates": [
          29.186085328521642,
          -54.68780003378572
        ]
      }
    },
    {
      "type": "Feature",
      "properties": {
        "norad_id": 42709,
        "name": "SES-15 (WAAS/PRN 133)",
        "group": "gnss",
        "lat": -0.04166304677930381,
        "lon": -78.48227827725057,
        "alt_km": 35786.44891286714,
        "timestamp": "2025-12-18T21:31:51.243015+00:00",
        "meta_object_name": "SES-15 (WAAS/PRN 133)",
        "meta_object_id": "2017-026A",
        "meta_epoch": "2025-12-18T05:44:09.794400",
        "meta_mean_motion": 1.0026876,
        "meta_eccentricity": 2.01e-05,
        "meta_inclination": 0.0181,
        "meta_ra_of_asc_node": 348.6685,
        "meta_arg_of_pericenter": 351.9408,
        "meta_mean_anomaly": 63.3573,
        "meta_ephemeris_type": 0,
        "meta_classification_type": "U",
        "meta_norad_cat_id": 42709,
        "meta_element_set_no": 999,
        "meta_rev_at_epoch": 561,
        "meta_bstar": 0,
        "meta_mean_motion_dot": 8.5e-07,
        "meta_mean_motion_ddot": 0,
        "tle_line1": "1 42709U 17026A   25352.23900225  .00000085  00000+0  00000+0 0  9999",
        "tle_line2": "2 42709   0.0181 348.6685 0000201 351.9408  63.3573  1.00268760  5616"
      },
      "geometry": {
        "type": "Point",
        "coordinates": [
          -78.48227827725057,
          -0.04166304677930381
        ]
      }
    },
    {
      "type": "Feature",
      "properties": {
        "norad_id": 42738,
        "name": "QZS-2 (QZSS/PRN 194)",
        "group": "gnss",
        "lat": -28.13377894917858,
        "lon": -154.21638795112142,
        "alt_km": 33356.14637054667,
        "timestamp": "2025-12-18T21:31:51.243027+00:00",
        "meta_object_name": "QZS-2 (QZSS/PRN 194)",
        "meta_object_id": "2017-028A",
        "meta_epoch": "2025-12-17T13:57:26.416800",
        "meta_mean_motion": 1.00281777,
        "meta_eccentricity": 0.07567645,
        "meta_inclination": 39.7061,
        "meta_ra_of_asc_node": 245.8118,
        "meta_arg_of_pericenter": 269.528,
        "meta_mean_anomaly": 282.4506,
        "meta_ephemeris_type": 0,
        "meta_classification_type": "U",
        "meta_norad_cat_id": 42738,
        "meta_element_set_no": 999,
        "meta_rev_at_epoch": 580,
        "meta_bstar": 0,
        "meta_mean_motion_dot": -1.35e-06,
        "meta_mean_motion_ddot": 0,
        "tle_line1": "1 42738U 17028A   25351.58155575 -.00000135  00000+0  00000+0 0  9997",
        "tle_line2": "2 42738  39.7061 245.8118 0756764 269.5280 282.4506  1.00281777  5801"
      },
      "geometry": {
        "type": "Point",
        "coordinates": [
          -154.21638795112142,
          -28.13377894917858
        ]
      }
    }
  ]
}